{
  "type": "FeatureCollection",
  "features": [
    {
      "type": "Feature",
      "properties": {
        "norad_id": 35435,
        "name": "COSMOS 2251 DEB",
        "group": "cosmos-2251-debris",
        "lat": 16.32754035447547,
        "lon": 129.12330273970008,
        "alt_km": 642.6797014097838,
        "timestamp": "2025-12-02T10:50:47.671840+00:00",
        "meta_object_name": "COSMOS 2251 DEB",
        "meta_object_id": "1993-036AKD",
        "meta_epoch": "2025-12-01T04:42:29.570112",
        "meta_mean_motion": 14.77856988,
        "meta_eccentricity": 0.0009617,
        "meta_inclination": 74.0095,
        "meta_ra_of_asc_node": 126.7727,
        "meta_arg_of_pericenter": 217.2149,
        "meta_mean_anomaly": 321.5063,
        "meta_ephemeris_type": 0,
        "meta_classification_type": "U",
        "meta_norad_cat_id": 35435,
        "meta_element_set_no": 999,
        "meta_rev_at_epoch": 87368,
        "meta_bstar": 0.0028899,
        "meta_mean_motion_dot": 0.00020833,
        "meta_mean_motion_ddot": 0,
        "tle_line1": "1 35435U 93036AKD 25335.19617558  .00020833  00000+0  28899-2 0  9994",
        "tle_line2": "2 35435  74.0095 126.7727 0009617 217.2149 321.5063 14.77856988873683"
      },
      "geometry": {
        "type": "Point",
        "coordinates": [
          129.12330273970008,
          16.32754035447547
        ]
      }
    },
    {
      "type": "Feature",
      "properties": {
        "norad_id": 35439,
        "name": "COSMOS 2251 DEB",
        "group": "cosmos-2251-debris",
        "lat": -42.18692748427849,
        "lon": -12.58035474289963,
        "alt_km": 950.9523876660351,
        "timestamp": "2025-12-02T10:50:47.671850+00:00",
        "meta_object_name": "COSMOS 2251 DEB",
        "meta_object_id": "1993-036AKH",
        "meta_epoch": "2025-12-01T18:18:43.778016",
        "meta_mean_motion": 13.92733955,
        "meta_eccentricity": 0.0241455,
        "meta_inclination": 74.0186,
        "meta_ra_of_asc_node": 153.5455,
        "meta_arg_of_pericenter": 325.3038,
        "meta_mean_anomaly": 48.7811,
        "meta_ephemeris_type": 0,
        "meta_classification_type": "U",
        "meta_norad_cat_id": 35439,
        "meta_element_set_no": 999,
        "meta_rev_at_epoch": 83808,
        "meta_bstar": 0.0015035,
        "meta_mean_motion_dot": 2.446e-05,
        "meta_mean_motion_ddot": 0,
        "tle_line1": "1 35439U 93036AKH 25335.76300669  .00002446  00000+0  15035-2 0  9991",
        "tle_line2": "2 35439  74.0186 153.5455 0241455 325.3038  48.7811 13.92733955838088"
      },
      "geometry": {
        "type": "Point",
        "coordinates": [
          -12.58035474289963,
          -42.18692748427849
        ]
      }
    },
    {
      "type": "Feature",
      "properties": {
        "norad_id": 35440,
        "name": "COSMOS 2251 DEB",
        "group": "cosmos-2251-debris",
        "lat": 5.509570213832854,
        "lon": -130.8561148928543,
        "alt_km": 618.717835386471,
        "timestamp": "2025-12-02T10:50:47.671860+00:00",
        "meta_object_name": "COSMOS 2251 DEB",
        "meta_object_id": "1993-036AKJ",
        "meta_epoch": "2025-12-01T23:22:39.601344",
        "meta_mean_motion": 14.68713507,
        "meta_eccentricity": 0.0068898,
        "meta_inclination": 74.0163,
        "meta_ra_of_asc_node": 228.485,
        "meta_arg_of_pericenter": 11.896,
        "meta_mean_anomaly": 348.3817,
        "meta_ephemeris_type": 0,
        "meta_classification_type": "U",
        "meta_norad_cat_id": 35440,
        "meta_element_set_no": 999,
        "meta_rev_at_epoch": 68607,
        "meta_bstar": 0.00062281,
        "meta_mean_motion_dot": 3.729e-05,
        "meta_mean_motion_ddot": 0,
        "tle_line1": "1 35440U 93036AKJ 25335.97406946  .00003729  00000+0  62281-3 0  9992",
        "tle_line2": "2 35440  74.0163 228.4850 0068898  11.8960 348.3817 14.68713507686075"
      },
      "geometry": {
        "type": "Point",
        "coordinates": [
          -130.8561148928543,
          5.509570213832854
        ]
      }
    },
    {
      "type": "Feature",
      "properties": {
        "norad_id": 35441,
        "name": "COSMOS 2251 DEB",
        "group": "cosmos-2251-debris",
        "lat": -12.58533843648055,
        "lon": 141.33726325674502,
        "alt_km": 665.5571767444917,
        "timestamp": "2025-12-02T10:50:47.671872+00:00",
        "meta_object_name": "COSMOS 2251 DEB",
        "meta_object_id": "1993-036AKK",
        "meta_epoch": "2025-11-27T10:05:58.414272",
        "meta_mean_motion": 14.62209655,
        "meta_eccentricity": 0.00380271,
        "meta_inclination": 74.1356,
        "meta_ra_of_asc_node": 327.2695,
        "meta_arg_of_pericenter": 228.9234,
        "meta_mean_anomaly": 130.8647,
        "meta_ephemeris_type": 0,
        "meta_classification_type": "U",
        "meta_norad_cat_id": 35441,
        "meta_element_set_no": 999,
        "meta_rev_at_epoch": 87206,
        "meta_bstar": 0.0016040934,
        "meta_mean_motion_dot": 8.144e-05,
        "meta_mean_motion_ddot": 0,
        "tle_line1": "1 35441U 93036AKK 25331.42081498  .00008144  00000+0  16041-2 0  9998",
        "tle_line2": "2 35441  74.1356 327.2695 0038027 228.9234 130.8647 14.62209655872061"
      },
      "geometry": {
        "type": "Point",
        "coordinates": [
          141.33726325674502,
          -12.58533843648055
        ]
      }
    },
    {
      "type": "Feature",
      "properties": {
        "norad_id": 35442,
        "name": "COSMOS 2251 DEB",
        "group": "cosmos-2251-debris",
        "lat": -5.137024173153528,
        "lon": 118.06727449229304,
        "alt_km": 623.4528656510911,
        "timestamp": "2025-12-02T10:50:47.671882+00:00",
        "meta_object_name": "COSMOS 2251 DEB",
        "meta_object_id": "1993-036AKL",
        "meta_epoch": "2025-12-02T02:46:45.175296",
        "meta_mean_motion": 14.8366998,
        "meta_eccentricity": 0.0004637,
        "meta_inclination": 74.0255,
        "meta_ra_of_asc_node": 120.209,
        "meta_arg_of_pericenter": 134.2231,
        "meta_mean_anomaly": 225.9329,
        "meta_ephemeris_type": 0,
        "meta_classification_type": "U",
        "meta_norad_cat_id": 35442,
        "meta_element_set_no": 999,
        "meta_rev_at_epoch": 87195,
        "meta_bstar": 0.0035194,
        "meta_mean_motion_dot": 0.0002917,
        "meta_mean_motion_ddot": 0,
        "tle_line1": "1 35442U 93036AKL 25336.11580064  .00029170  00000+0  35194-2 0  9995",
        "tle_line2": "2 35442  74.0255 120.2090 0004637 134.2231 225.9329 14.83669980871959"
      },
      "geometry": {
        "type": "Point",
        "coordinates": [
          118.06727449229304,
          -5.137024173153528
        ]
      }
    },
    {
      "type": "Feature",
      "properties": {
        "norad_id": 35443,
        "name": "COSMOS 2251 DEB",
        "group": "cosmos-2251-debris",
        "lat": -51.91468009009496,
        "lon": -29.055661174143236,
        "alt_km": 638.1048190958754,
        "timestamp": "2025-12-02T10:50:47.671893+00:00",
        "meta_object_name": "COSMOS 2251 DEB",
        "meta_object_id": "1993-036AKM",
        "meta_epoch": "2025-12-01T19:02:20.168736",
        "meta_mean_motion": 14.95343582,
        "meta_eccentricity": 0.0074144,
        "meta_inclination": 73.9873,
        "meta_ra_of_asc_node": 353.7736,
        "meta_arg_of_pericenter": 139.118,
        "meta_mean_anomaly": 221.5599,
        "meta_ephemeris_type": 0,
        "meta_classification_type": "U",
        "meta_norad_cat_id": 35443,
        "meta_element_set_no": 999,
        "meta_rev_at_epoch": 86714,
        "meta_bstar": 0.0031171,
        "meta_mean_motion_dot": 0.00036482,
        "meta_mean_motion_ddot": 0,
        "tle_line1": "1 35443U 93036AKM 25335.79328899  .00036482  00000+0  31171-2 0  9990",
        "tle_line2": "2 35443  73.9873 353.7736 0074144 139.1180 221.5599 14.95343582867148"
      },
      "geometry": {
        "type": "Point",
        "coordinates": [
          -29.055661174143236,
          -51.91468009009496
        ]
      }
    },
    {
      "type": "Feature",
      "properties": {
        "norad_id": 35445,
        "name": "COSMOS 2251 DEB",
        "group": "cosmos-2251-debris",
        "lat": -74.02426547238919,
        "lon": -129.7204403326795,
        "alt_km": 779.9550632877854,
        "timestamp": "2025-12-02T10:50:47.671904+00:00",
        "meta_object_name": "COSMOS 2251 DEB",
        "meta_object_id": "1993-036AKP",
        "meta_epoch": "2025-12-01T05:37:58.814400",
        "meta_mean_motion": 14.58784895,
        "meta_eccentricity": 0.0143608,
        "meta_inclination": 74.0353,
        "meta_ra_of_asc_node": 321.9314,
        "meta_arg_of_pericenter": 51.7494,
        "meta_mean_anomaly": 309.6492,
        "meta_ephemeris_type": 0,
        "meta_classification_type": "U",
        "meta_norad_cat_id": 35445,
        "meta_element_set_no": 999,
        "meta_rev_at_epoch": 87161,
        "meta_bstar": 0.0018521,
        "meta_mean_motion_dot": 9.974e-05,
        "meta_mean_motion_ddot": 0,
        "tle_line1": "1 35445U 93036AKP 25335.23470850  .00009974  00000+0  18521-2 0  9996",
        "tle_line2": "2 35445  74.0353 321.9314 0143608  51.7494 309.6492 14.58784895871615"
      },
      "geometry": {
        "type": "Point",
        "coordinates": [
          -129.7204403326795,
          -74.02426547238919
        ]
      }
    }
  ]
}